KUIPER-00008            
1 63724U 25088A   25354.97626968 -.00000008  00000+0  20981-4 0  9999
2 63724  51.8905  85.7051 0009433 195.2948 164.7739 14.99121480 36257
KUIPER-00009            
1 63725U 25088B   25354.97560967 -.00001296  00000+0 -14048-3 0  9993
2 63725  51.9036  94.6939 0011446 190.9592 169.1123 14.79938757 36125
KUIPER-00010            
1 63726U 25088C   25354.95596715  .00001111  00000+0  17301-3 0  9991
2 63726  51.9023  71.1207 0011639 237.7246 122.2589 14.80435427 36078
KUIPER-00011            
1 63727U 25088D   25354.92590102 -.00002457  00000+0 -29223-3 0  9995
2 63727  51.9000  78.9493 0013372 211.3301 148.6866 14.79962195 36099
KUIPER-00012            
1 63728U 25088E   25355.18269999  .00001420  00000+0  23113-3 0  9991
2 63728  51.9032  61.3807 0008327 221.6527 138.3801 14.76785513 36312
KUIPER-00013            
1 63729U 25088F   25354.29926976 -.00002441  00000+0 -29059-3 0  9999
2 63729  51.9013  99.1481 0008061 121.7230 238.4519 14.79961013 35811
KUIPER-00014            
1 63730U 25088G   25354.49957327 -.00028503  00000+0 -37120-2 0  9991
2 63730  51.9038  99.2281 0007502 188.7252 171.3581 14.80061551 35640
KUIPER-00015            
1 63731U 25088H   25353.38274214  .00001888  00000+0  26382-3 0  9990
2 63731  51.8988 115.0587 0010764 167.9923 192.1299 14.82016392 35785
